{
"type": "FeatureCollection",
"name": "line_test",
"crs": { "type": "name", "properties": { "name": "urn:ogc:def:crs:OGC:1.3:CRS84" } },
"features": [
{ "type": "Feature", "properties": { "id": null, "name": "測試" }, "geometry": { "type": "MultiLineString", "coordinates": [ [ [ 120.633573834763865, 24.154443629600685 ], [ 120.63465031071685, 24.154472331004225 ], [ 120.633572087237965, 24.154430873419269 ], [ 120.634657300820436, 24.154451602213431 ], [ 120.633579077341551, 24.154411739144756 ], [ 120.634652058242722, 24.154434062464741 ], [ 120.633573834763865, 24.154391010344124 ], [ 120.634657300820436, 24.154411739144756 ], [ 120.633579077341551, 24.154371876063639 ], [ 120.634660795872207, 24.154392604867368 ], [ 120.633577329815623, 24.154354336304003 ], [ 120.634666038449936, 24.154375065110589 ], [ 120.633580824867451, 24.154330418446076 ], [ 120.634671281027622, 24.154354336304003 ], [ 120.633582572393351, 24.154308095107982 ], [ 120.634673028553522, 24.154335202018025 ], [ 120.633584319919223, 24.154287366290532 ], [ 120.634674776079393, 24.154317662253359 ], [ 120.633587814971037, 24.154263448420071 ], [ 120.634678271131222, 24.154298527961885 ], [ 120.633645483325679, 24.154244314120483 ], [ 120.633589562496937, 24.154239530545134 ], [ 120.634680018657122, 24.154274610093516 ], [ 120.633587814971037, 24.154221990767333 ], [ 120.634690503812479, 24.154252286745656 ], [ 120.633589562496937, 24.154199667410289 ], [ 120.634692251338407, 24.154236341494805 ], [ 120.633591310022808, 24.154186911204508 ], [ 120.634699241441993, 24.154217207191149 ], [ 120.633593057548737, 24.154169371419488 ], [ 120.634695746390193, 24.154198072884636 ], [ 120.633591310022808, 24.154151831632046 ], [ 120.634702736493793, 24.154175749523411 ], [ 120.633594805074637, 24.154131102789254 ], [ 120.634706231545579, 24.154155020684485 ], [ 120.633600047652308, 24.154111968469838 ], [ 120.634709726597379, 24.15413588636866 ], [ 120.633596552600537, 24.15408964509356 ], [ 120.63471322164915, 24.154110373943091 ], [ 120.633600047652308, 24.154064132658771 ], [ 120.634714969175079, 24.15409123962057 ], [ 120.633601795178222, 24.15404340380174 ], [ 120.63472021175275, 24.154068916240682 ], [ 120.633603542704122, 24.154021080413489 ], [ 120.634727201856336, 24.154041809274133 ], [ 120.633603542704122, 24.15399716249318 ], [ 120.63473069690815, 24.154014702301851 ], [ 120.633608785281822, 24.153974839096843 ], [ 120.63473593948585, 24.15399716249318 ], [ 120.633610532807722, 24.153955704754033 ], [ 120.63474118206355, 24.15397165003991 ], [ 120.633612280333608, 24.153931786821481 ], [ 120.634742929589422, 24.153942948523902 ], [ 120.63361402785948, 24.153914247001435 ], [ 120.634749919693007, 24.1539222196472 ], [ 120.633610532807722, 24.153898301708388 ], [ 120.634753414744836, 24.153901490767154 ], [ 120.633619270437208, 24.153877572824459 ], [ 120.634760404848421, 24.153883950942944 ], [ 120.633617522911308, 24.153848871287309 ], [ 120.634765647426093, 24.153869600175891 ], [ 120.633619270437208, 24.153826547865066 ] ] ] } }
]
}
