{
"type": "FeatureCollection",
"name": "yellow_line_test",
"crs": { "type": "name", "properties": { "name": "urn:ogc:def:crs:OGC:1.3:CRS84" } },
"features": [
{ "type": "Feature", "properties": { "id": null, "name": "治理線測試" }, "geometry": { "type": "MultiLineString", "coordinates": [ [ [ 120.633946057780079, 24.154173357734475 ], [ 120.63407187964475, 24.154165385104367 ], [ 120.634202944087079, 24.154173357734475 ], [ 120.634279835226565, 24.154210031826548 ], [ 120.634250127286293, 24.154278596405224 ], [ 120.634154013361936, 24.154232355181779 ], [ 120.634120810369865, 24.154277001880551 ], [ 120.634045666756251, 24.154265840207323 ], [ 120.633932077572894, 24.154265840207323 ], [ 120.633876156744179, 24.154241922332837 ], [ 120.633860429011094, 24.154093631411044 ], [ 120.634084112325993, 24.154050579175713 ], [ 120.634340998632993, 24.154098414991861 ], [ 120.634388181832207, 24.154206842775476 ], [ 120.634351483788379, 24.154343971899454 ], [ 120.634194206457579, 24.154382240465925 ] ] ] } }
]
}
